start=new Date('2022-02-23T00:00:00.000Z').valueOf();
sats=[{"DECAY_DATE":null,"RCS_SIZE":"LARGE","MEAN_ELEMENT_THEORY":"SGP4","NORAD_CAT_ID":"48382","OBJECT_TYPE":"PAYLOAD","MEAN_MOTION_DDOT":"0.0000000000000","CLASSIFICATION_TYPE":"U","PERIAPSIS":"546.340","MEAN_MOTION":"15.06391368","REF_FRAME":"TEME","PERIOD":"95.593","RA_OF_ASC_NODE":"137.5745","EPOCH":"2022-02-22T16:55:21.218016","APOAPSIS":"548.140","ARG_OF_PERICENTER":"61.5886","REV_AT_EPOCH":"4470","LAUNCH_DATE":"2021-05-04","FILE":"3314780","TIME_SYSTEM":"UTC","GP_ID":"196684513","ECCENTRICITY":"0.00012990","OBJECT_ID":"2021-038AF","INCLINATION":"53.0546","SEMIMAJOR_AXIS":"6925.375","TLE_LINE2":"2 48382  53.0546 137.5745 0001299  61.5886 298.5233 15.06391368 44706","BSTAR":"-0.00009802800000","CENTER_NAME":"EARTH","EPHEMERIS_TYPE":"0","ELEMENT_SET_NO":"999","SITE":"AFETR","MEAN_MOTION_DOT":"-0.00001741","COUNTRY_CODE":"US","TLE_LINE1":"1 48382U 21038AF  22053.70510669 -.00001741  00000-0 -98028-4 0  9991","MEAN_ANOMALY":"298.5233","OBJECT_NAME":"STARLINK-2585"},{"APOAPSIS":"548.292","EPOCH":"2022-02-22T16:50:02.884128","PERIOD":"95.593","RA_OF_ASC_NODE":"137.5769","REF_FRAME":"TEME","MEAN_MOTION":"15.06389265","PERIAPSIS":"546.201","MEAN_MOTION_DDOT":"0.0000000000000","CLASSIFICATION_TYPE":"U","OBJECT_TYPE":"PAYLOAD","NORAD_CAT_ID":"48383","RCS_SIZE":"LARGE","MEAN_ELEMENT_THEORY":"SGP4","DECAY_DATE":null,"MEAN_ANOMALY":"301.9527","TLE_LINE1":"1 48383U 21038AG  22053.70142227 -.00001410  00000-0 -75781-4 0  9997","OBJECT_NAME":"STARLINK-2599","COUNTRY_CODE":"US","EPHEMERIS_TYPE":"0","SITE":"AFETR","MEAN_MOTION_DOT":"-0.00001410","ELEMENT_SET_NO":"999","BSTAR":"-0.00007578100000","CENTER_NAME":"EARTH","SEMIMAJOR_AXIS":"6925.381","TLE_LINE2":"2 48383  53.0562 137.5769 0001510  58.1609 301.9527 15.06389265 45925","OBJECT_ID":"2021-038AG","INCLINATION":"53.0562","ECCENTRICITY":"0.00015100","GP_ID":"196684764","FILE":"3314780","TIME_SYSTEM":"UTC","REV_AT_EPOCH":"4592","LAUNCH_DATE":"2021-05-04","ARG_OF_PERICENTER":"58.1609"},{"TIME_SYSTEM":"UTC","FILE":"3314780","ECCENTRICITY":"0.00015300","GP_ID":"196683512","ARG_OF_PERICENTER":"59.8396","LAUNCH_DATE":"2021-05-04","REV_AT_EPOCH":"4590","MEAN_MOTION_DOT":"-0.00002114","SITE":"AFETR","ELEMENT_SET_NO":"999","EPHEMERIS_TYPE":"0","OBJECT_NAME":"STARLINK-2601","MEAN_ANOMALY":"300.2744","TLE_LINE1":"1 48384U 21038AH  22053.56504600 -.00002114  00000-0 -12309-3 0  9997","COUNTRY_CODE":"US","OBJECT_ID":"2021-038AH","INCLINATION":"53.0559","CENTER_NAME":"EARTH","BSTAR":"-0.00012309000000","TLE_LINE2":"2 48384  53.0559 138.1947 0001530  59.8396 300.2744 15.06391572 45905","SEMIMAJOR_AXIS":"6925.374","OBJECT_TYPE":"PAYLOAD","CLASSIFICATION_TYPE":"U","MEAN_MOTION_DDOT":"0.0000000000000","MEAN_ELEMENT_THEORY":"SGP4","RCS_SIZE":"LARGE","DECAY_DATE":null,"NORAD_CAT_ID":"48384","EPOCH":"2022-02-22T13:33:39.974400","RA_OF_ASC_NODE":"138.1947","PERIOD":"95.593","APOAPSIS":"548.299","MEAN_MOTION":"15.06391572","PERIAPSIS":"546.180","REF_FRAME":"TEME"},{"NORAD_CAT_ID":"48385","DECAY_DATE":null,"RCS_SIZE":"LARGE","MEAN_ELEMENT_THEORY":"SGP4","MEAN_MOTION_DDOT":"0.0000000000000","CLASSIFICATION_TYPE":"U","OBJECT_TYPE":"PAYLOAD","REF_FRAME":"TEME","PERIAPSIS":"546.245","MEAN_MOTION":"15.06386781","APOAPSIS":"548.263","PERIOD":"95.593","RA_OF_ASC_NODE":"138.5046","EPOCH":"2022-02-22T11:52:48.724032","REV_AT_EPOCH":"4589","LAUNCH_DATE":"2021-05-04","ARG_OF_PERICENTER":"57.2857","GP_ID":"196640546","ECCENTRICITY":"0.00014570","FILE":"3313833","TIME_SYSTEM":"UTC","SEMIMAJOR_AXIS":"6925.389","TLE_LINE2":"2 48385  53.0535 138.5046 0001457  57.2857 302.8272 15.06386781 45894","BSTAR":"-0.00017766000000","CENTER_NAME":"EARTH","OBJECT_ID":"2021-038AJ","INCLINATION":"53.0535","COUNTRY_CODE":"US","MEAN_ANOMALY":"302.8272","TLE_LINE1":"1 48385U 21038AJ  22053.49500838 -.00002926  00000-0 -17766-3 0  9992","OBJECT_NAME":"STARLINK-2598","EPHEMERIS_TYPE":"0","MEAN_MOTION_DOT":"-0.00002926","SITE":"AFETR","ELEMENT_SET_NO":"999"},{"RA_OF_ASC_NODE":"132.6885","PERIOD":"95.592","EPOCH":"2022-02-22T16:20:09.615840","APOAPSIS":"548.296","PERIAPSIS":"546.147","MEAN_MOTION":"15.06397393","REF_FRAME":"TEME","OBJECT_TYPE":"PAYLOAD","MEAN_MOTION_DDOT":"0.0000000000000","CLASSIFICATION_TYPE":"U","DECAY_DATE":null,"RCS_SIZE":"LARGE","MEAN_ELEMENT_THEORY":"SGP4","NORAD_CAT_ID":"48386","EPHEMERIS_TYPE":"0","MEAN_MOTION_DOT":"0.00003516","SITE":"AFETR","ELEMENT_SET_NO":"999","COUNTRY_CODE":"US","TLE_LINE1":"1 48386U 21038AK  22053.68066685  .00003516  00000-0  25482-3 0  9999","MEAN_ANOMALY":"301.1460","OBJECT_NAME":"STARLINK-2606","OBJECT_ID":"2021-038AK","INCLINATION":"53.0531","SEMIMAJOR_AXIS":"6925.357","TLE_LINE2":"2 48386  53.0531 132.6885 0001551  58.9681 301.1460 15.06397393 44762","BSTAR":"0.00025482000000","CENTER_NAME":"EARTH","TIME_SYSTEM":"UTC","FILE":"3314780","GP_ID":"196685014","ECCENTRICITY":"0.00015510","ARG_OF_PERICENTER":"58.9681","LAUNCH_DATE":"2021-05-04","REV_AT_EPOCH":"4476"},{"CLASSIFICATION_TYPE":"U","MEAN_MOTION_DDOT":"0.0000000000000","OBJECT_TYPE":"PAYLOAD","NORAD_CAT_ID":"48387","DECAY_DATE":null,"MEAN_ELEMENT_THEORY":"SGP4","RCS_SIZE":"LARGE","APOAPSIS":"548.508","PERIOD":"95.593","RA_OF_ASC_NODE":"132.5378","EPOCH":"2022-02-22T17:07:55.572096","REF_FRAME":"TEME","PERIAPSIS":"546.021","MEAN_MOTION":"15.06383353","GP_ID":"196685265","ECCENTRICITY":"0.00017960","FILE":"3314780","TIME_SYSTEM":"UTC","REV_AT_EPOCH":"4477","LAUNCH_DATE":"2021-05-04","ARG_OF_PERICENTER":"51.2094","COUNTRY_CODE":"US","OBJECT_NAME":"STARLINK-2600","TLE_LINE1":"1 48387U 21038AL  22053.71383764 -.00003103  00000-0 -18960-3 0  9991","MEAN_ANOMALY":"308.9055","MEAN_MOTION_DOT":"-0.00003103","SITE":"AFETR","ELEMENT_SET_NO":"999","EPHEMERIS_TYPE":"0","TLE_LINE2":"2 48387  53.0532 132.5378 0001796  51.2094 308.9055 15.06383353 44772","SEMIMAJOR_AXIS":"6925.400","CENTER_NAME":"EARTH","BSTAR":"-0.00018960000000","INCLINATION":"53.0532","OBJECT_ID":"2021-038AL"},{"OBJECT_NAME":"STARLINK-2594","TLE_LINE1":"1 48388U 21038AM  22053.90645144  .00000437  00000-0  48220-4 0  9994","MEAN_ANOMALY":"294.9838","COUNTRY_CODE":"US","MEAN_MOTION_DOT":"0.00000437","SITE":"AFETR","ELEMENT_SET_NO":"999","EPHEMERIS_TYPE":"0","CENTER_NAME":"EARTH","BSTAR":"0.00004822000000","TLE_LINE2":"2 48388  53.0542 131.6615 0001503  65.1308 294.9838 15.06401058 44806","SEMIMAJOR_AXIS":"6925.345","OBJECT_ID":"2021-038AM","INCLINATION":"53.0542","ECCENTRICITY":"0.00015030","GP_ID":"196684013","TIME_SYSTEM":"UTC","FILE":"3314780","REV_AT_EPOCH":"4480","LAUNCH_DATE":"2021-05-04","ARG_OF_PERICENTER":"65.1308","APOAPSIS":"548.251","EPOCH":"2022-02-22T21:45:17.404416","PERIOD":"95.592","RA_OF_ASC_NODE":"131.6615","REF_FRAME":"TEME","MEAN_MOTION":"15.06401058","PERIAPSIS":"546.169","CLASSIFICATION_TYPE":"U","MEAN_MOTION_DDOT":"0.0000000000000","OBJECT_TYPE":"PAYLOAD","NORAD_CAT_ID":"48388","MEAN_ELEMENT_THEORY":"SGP4","RCS_SIZE":"LARGE","DECAY_DATE":null},{"MEAN_MOTION_DOT":"0.00000379","SITE":"AFETR","ELEMENT_SET_NO":"999","EPHEMERIS_TYPE":"0","OBJECT_NAME":"STARLINK-1904","MEAN_ANOMALY":"299.7807","TLE_LINE1":"1 48389U 21038AN  22053.89400876  .00000379  00000-0  44325-4 0  9991","COUNTRY_CODE":"US","INCLINATION":"53.0557","OBJECT_ID":"2021-038AN","CENTER_NAME":"EARTH","BSTAR":"0.00004432500000","TLE_LINE2":"2 48389  53.0557 126.7181 0001479  60.3330 299.7807 15.06395686 44864","SEMIMAJOR_AXIS":"6925.362","FILE":"3314780","TIME_SYSTEM":"UTC","ECCENTRICITY":"0.00014790","GP_ID":"196684263","ARG_OF_PERICENTER":"60.3330","REV_AT_EPOCH":"4486","LAUNCH_DATE":"2021-05-04","EPOCH":"2022-02-22T21:27:22.356864","PERIOD":"95.592","RA_OF_ASC_NODE":"126.7181","APOAPSIS":"548.251","MEAN_MOTION":"15.06395686","PERIAPSIS":"546.203","REF_FRAME":"TEME","OBJECT_TYPE":"PAYLOAD","CLASSIFICATION_TYPE":"U","MEAN_MOTION_DDOT":"0.0000000000000","MEAN_ELEMENT_THEORY":"SGP4","RCS_SIZE":"LARGE","DECAY_DATE":null,"NORAD_CAT_ID":"48389"},{"OBJECT_TYPE":"PAYLOAD","MEAN_MOTION_DDOT":"0.0000000000000","CLASSIFICATION_TYPE":"U","DECAY_DATE":null,"RCS_SIZE":"LARGE","MEAN_ELEMENT_THEORY":"SGP4","NORAD_CAT_ID":"48390","PERIOD":"95.593","RA_OF_ASC_NODE":"126.7456","EPOCH":"2022-02-22T21:22:04.516320","APOAPSIS":"548.243","PERIAPSIS":"546.244","MEAN_MOTION":"15.06390270","REF_FRAME":"TEME","FILE":"3314780","TIME_SYSTEM":"UTC","GP_ID":"196684514","ECCENTRICITY":"0.00014430","ARG_OF_PERICENTER":"51.8002","LAUNCH_DATE":"2021-05-04","REV_AT_EPOCH":"4608","EPHEMERIS_TYPE":"0","MEAN_MOTION_DOT":"-0.00001139","SITE":"AFETR","ELEMENT_SET_NO":"999","COUNTRY_CODE":"US","MEAN_ANOMALY":"308.3117","TLE_LINE1":"1 48390U 21038AP  22053.89033005 -.00001139  00000-0 -57626-4 0  9994","OBJECT_NAME":"STARLINK-2586","OBJECT_ID":"2021-038AP","INCLINATION":"53.0543","SEMIMAJOR_AXIS":"6925.378","TLE_LINE2":"2 48390  53.0543 126.7456 0001443  51.8002 308.3117 15.06390270 46089","BSTAR":"-0.00005762600000","CENTER_NAME":"EARTH"},{"GP_ID":"196684765","ECCENTRICITY":"0.00017060","FILE":"3314780","TIME_SYSTEM":"UTC","REV_AT_EPOCH":"4608","LAUNCH_DATE":"2021-05-04","ARG_OF_PERICENTER":"52.2121","COUNTRY_CODE":"US","OBJECT_NAME":"STARLINK-2607","MEAN_ANOMALY":"307.9022","TLE_LINE1":"1 48391U 21038AQ  22053.88664394 -.00000365  00000-0 -55715-5 0  9993","ELEMENT_SET_NO":"999","SITE":"AFETR","MEAN_MOTION_DOT":"-0.00000365","EPHEMERIS_TYPE":"0","TLE_LINE2":"2 48391  53.0555 126.7583 0001706  52.2121 307.9022 15.06390459 46082","SEMIMAJOR_AXIS":"6925.378","CENTER_NAME":"EARTH","BSTAR":"-0.00000557150000","OBJECT_ID":"2021-038AQ","INCLINATION":"53.0555","CLASSIFICATION_TYPE":"U","MEAN_MOTION_DDOT":"0.0000000000000","OBJECT_TYPE":"PAYLOAD","NORAD_CAT_ID":"48391","DECAY_DATE":null,"MEAN_ELEMENT_THEORY":"SGP4","RCS_SIZE":"LARGE","APOAPSIS":"548.424","RA_OF_ASC_NODE":"126.7583","PERIOD":"95.593","EPOCH":"2022-02-22T21:16:46.036416","REF_FRAME":"TEME","PERIAPSIS":"546.061","MEAN_MOTION":"15.06390459"}];
